[{"OBJECT_NAME":"STARLINK-32337","OBJECT_ID":"2024-191Y","EPOCH":"2026-03-09T06:34:07.916736","MEAN_MOTION":15.27556794,"ECCENTRICITY":0.00018418,"INCLINATION":43.003,"RA_OF_ASC_NODE":156.7747,"ARG_OF_PERICENTER":275.6221,"MEAN_ANOMALY":84.4421,"EPHEMERIS_TYPE":0,"CLASSIFICATION_TYPE":"U","NORAD_CAT_ID":61643,"ELEMENT_SET_NO":999,"REV_AT_EPOCH":7823,"BSTAR":-0.00014314032,"MEAN_MOTION_DOT":-4.196e-5,"MEAN_MOTION_DDOT":0},{"OBJECT_NAME":"DELTA 1 DEB","OBJECT_ID":"1977-065CC","EPOCH":"2026-03-09T22:33:14.085504","MEAN_MOTION":13.8497458,"ECCENTRICITY":0.06695418,"INCLINATION":28.9783,"RA_OF_ASC_NODE":359.1013,"ARG_OF_PERICENTER":308.7305,"MEAN_ANOMALY":45.5226,"EPHEMERIS_TYPE":0,"CLASSIFICATION_TYPE":"U","NORAD_CAT_ID":10251,"ELEMENT_SET_NO":999,"REV_AT_EPOCH":40349,"BSTAR":0.00050077095,"MEAN_MOTION_DOT":3.77e-5,"MEAN_MOTION_DDOT":0}]
